[{"OBJECT_NAME":"STARLINK-36190","OBJECT_ID":"2025-293AC","EPOCH":"2026-03-09T11:46:34.094496","MEAN_MOTION":14.98334017,"ECCENTRICITY":0.00041469,"INCLINATION":70.0004,"RA_OF_ASC_NODE":95.1339,"ARG_OF_PERICENTER":267.3595,"MEAN_ANOMALY":92.709,"EPHEMERIS_TYPE":0,"CLASSIFICATION_TYPE":"U","NORAD_CAT_ID":67029,"ELEMENT_SET_NO":999,"REV_AT_EPOCH":1485,"BSTAR":0.00017601562,"MEAN_MOTION_DOT":2.008e-5,"MEAN_MOTION_DDOT":0},{"OBJECT_NAME":"COSMOS 2251 DEB","OBJECT_ID":"1993-036BQA","EPOCH":"2026-02-08T04:34:20.118432","MEAN_MOTION":14.79329439,"ECCENTRICITY":0.00859513,"INCLINATION":73.9998,"RA_OF_ASC_NODE":211.0646,"ARG_OF_PERICENTER":187.26,"MEAN_ANOMALY":172.734,"EPHEMERIS_TYPE":0,"CLASSIFICATION_TYPE":"U","NORAD_CAT_ID":37975,"ELEMENT_SET_NO":999,"REV_AT_EPOCH":70594,"BSTAR":0.0042950145,"MEAN_MOTION_DOT":0.00034176,"MEAN_MOTION_DDOT":0}]
